[c2022v2(lemmon)]
orbit_Eccentricity             = 0.943954
name                           = C/2022 V2 (Lemmon)
orbit_AscendingNode            = 332.8695
orbit_good                     = 1000
slope_parameter                = 4
orbit_PericenterDistance       = 2.063544
orbit_Inclination              = 98.9069
dust_widthfactor               = 1.5
radius                         = 5
ref                            = MPEC 2023-M14
discovery                      = 2022-11-02
orbit_TimeAtPericenter         = 2460250.4319
albedo                         = 0.1
dust_lengthfactor              = 0.4
orbit_ArgOfPericenter          = 168.9517
type                           = comet
absolute_magnitude             = 13.6
coord_func                     = comet_orbit
dust_brightnessfactor          = 1.5
orbit_Epoch                    = 2460114.5

[p2022w1(rankin)]
orbit_Eccentricity             = 0.516576
name                           = P/2022 W1 (Rankin)
orbit_AscendingNode            = 38.8162
orbit_good                     = 1000
slope_parameter                = 4
orbit_PericenterDistance       = 3.368024
orbit_Inclination              = 13.466
dust_widthfactor               = 1.5
radius                         = 5
ref                            = MPEC 2023-CD7
discovery                      = 2022-11-18
orbit_TimeAtPericenter         = 2459838.2837
albedo                         = 0.1
discoverer                     = D. Rankin
dust_lengthfactor              = 0.4
orbit_ArgOfPericenter          = 17.8004
type                           = comet
absolute_magnitude             = 12.5
coord_func                     = comet_orbit
dust_brightnessfactor          = 1.5
orbit_Epoch                    = 2460114.5

[c2022w2(atlas)]
orbit_Eccentricity             = 0.990714
name                           = C/2022 W2 (ATLAS)
orbit_AscendingNode            = 320.4506
orbit_good                     = 1000
slope_parameter                = 4
orbit_PericenterDistance       = 3.122818
orbit_Inclination              = 63.5309
dust_widthfactor               = 1.5
radius                         = 5
ref                            = MPEC 2023-M14
discovery                      = 2022-11-24
orbit_TimeAtPericenter         = 2460012.1983
albedo                         = 0.1
dust_lengthfactor              = 0.4
orbit_ArgOfPericenter          = 123.2613
type                           = comet
absolute_magnitude             = 13.3
coord_func                     = comet_orbit
dust_brightnessfactor          = 1.5
orbit_Epoch                    = 2460114.5

[c2022w3(leonard)]
orbit_Eccentricity             = 0.995105
name                           = C/2022 W3 (Leonard)
orbit_AscendingNode            = 132.2696
orbit_good                     = 1000
slope_parameter                = 4
orbit_PericenterDistance       = 1.397752
orbit_Inclination              = 103.5591
dust_widthfactor               = 1.5
radius                         = 5
ref                            = MPEC 2023-M14
discovery                      = 2022-11-26
orbit_TimeAtPericenter         = 2460118.2749
albedo                         = 0.1
discoverer                     = G.J. Leonard
dust_lengthfactor              = 0.4
orbit_ArgOfPericenter          = 116.5198
type                           = comet
absolute_magnitude             = 14.2
coord_func                     = comet_orbit
dust_brightnessfactor          = 1.5
orbit_Epoch                    = 2460114.5

[c2022y1(hogan)]
orbit_Eccentricity             = 0.764457
name                           = C/2022 Y1 (Hogan)
orbit_AscendingNode            = 285.913
orbit_good                     = 1000
slope_parameter                = 4
orbit_PericenterDistance       = 2.957798
orbit_Inclination              = 18.8574
dust_widthfactor               = 1.5
radius                         = 5
ref                            = MPEC 2023-M14
discovery                      = 2022-12-24
orbit_TimeAtPericenter         = 2459910.7621
albedo                         = 0.1
discoverer                     = J. Hogan
dust_lengthfactor              = 0.4
orbit_ArgOfPericenter          = 174.7495
type                           = comet
absolute_magnitude             = 9
coord_func                     = comet_orbit
dust_brightnessfactor          = 1.5
orbit_Epoch                    = 2460114.5

[c2022y2(lemmon)]
orbit_Eccentricity             = 0.87046
name                           = C/2022 Y2 (Lemmon)
orbit_AscendingNode            = 216.3496
orbit_good                     = 1000
slope_parameter                = 4
orbit_PericenterDistance       = 2.544994
orbit_Inclination              = 165.907
dust_widthfactor               = 1.5
radius                         = 5
ref                            = MPEC 2023-M14
discovery                      = 2022-12-24
orbit_TimeAtPericenter         = 2460026.1617
albedo                         = 0.1
dust_lengthfactor              = 0.4
orbit_ArgOfPericenter          = 105.5611
type                           = comet
absolute_magnitude             = 15.6
coord_func                     = comet_orbit
dust_brightnessfactor          = 1.5
orbit_Epoch                    = 2460114.5

[c2023a1(leonard)]
orbit_Eccentricity             = 0.991984
name                           = C/2023 A1 (Leonard)
orbit_AscendingNode            = 318.308
orbit_good                     = 1000
slope_parameter                = 4
orbit_PericenterDistance       = 1.834729
orbit_Inclination              = 94.7418
dust_widthfactor               = 1.5
radius                         = 5
ref                            = MPEC 2023-KD6
discovery                      = 2023-01-09
orbit_TimeAtPericenter         = 2460022.2276
albedo                         = 0.1
discoverer                     = G.J. Leonard
dust_lengthfactor              = 0.4
orbit_ArgOfPericenter          = 159.2505
type                           = comet
absolute_magnitude             = 14.5
coord_func                     = comet_orbit
dust_brightnessfactor          = 1.5
orbit_Epoch                    = 2460114.5

[c2023a2(swan)]
orbit_Eccentricity             = 0.99797
name                           = C/2023 A2 (SWAN)
orbit_AscendingNode            = 94.4686
orbit_good                     = 1000
slope_parameter                = 4
orbit_PericenterDistance       = 0.947257
orbit_Inclination              = 94.7088
dust_widthfactor               = 1.5
radius                         = 5
ref                            = MPEC 2023-J95
discovery                      = 2023-01-06
orbit_TimeAtPericenter         = 2459964.8796
albedo                         = 0.1
discoverer                     = V. Bezugly
dust_lengthfactor              = 0.4
orbit_ArgOfPericenter          = 142.5646
type                           = comet
absolute_magnitude             = 13.5
coord_func                     = comet_orbit
dust_brightnessfactor          = 1.5
orbit_Epoch                    = 2460114.5

[c2023a3(tsuchinshanatlas)]
orbit_Eccentricity             = 1.000175
name                           = C/2023 A3 (Tsuchinshan-ATLAS)
orbit_AscendingNode            = 21.5574
orbit_good                     = 1000
slope_parameter                = 4
orbit_PericenterDistance       = 0.391333
orbit_Inclination              = 139.1183
dust_widthfactor               = 1.5
radius                         = 5
ref                            = MPEC 2023-M14
discovery                      = 2023-01-09
orbit_TimeAtPericenter         = 2460581.1849
albedo                         = 0.1
dust_lengthfactor              = 0.4
orbit_ArgOfPericenter          = 308.4863
type                           = comet
absolute_magnitude             = 8.9
coord_func                     = comet_orbit
dust_brightnessfactor          = 1.5
orbit_Epoch                    = 2460114.5

